weatherData: {
  report: {
    conditions: {
      text: 'METAR KDAB 082053Z 00000KT 10SM FEW095 BKN120 23/21 A2991 RMK AO2 RAE09 SLP128 P0001 60021 T02330211 58023',
      ident: 'kdab',
      dateIssued: '2023-09-08T20:53:00+0000',
      lat: 29.179909023343924,
      lon: -81.05804206484643,
      elevationFt: 34,
      tempC: 23,
      dewpointC: 21,
      pressureHg: 29.91,
      pressureHpa: 1012.911123,
      reportedAsHpa: false,
      densityAltitudeFt: 1320,
      relativeHumidity: 89,
      flightRules: 'vfr',
      cloudLayers: [Array],
      cloudLayersV2: [Array],
      weather: [],
      visibility: [Object],
      wind: [Object],
      remarks: [Object]
    },
    forecast: {
      text: 'KDAB 082025Z 0820/0918 21007KT P6SM VCSH FEW035 BKN120 FM082200 23006KT P6SM FEW035 BKN120 FM090000 17004KT P6SM FEW040 BKN200 FM091500 19007KT P6SM SCT040 SCT250',
      ident: 'kdab',
      dateIssued: '2023-09-08T20:25:00+0000',
      period: [Object],
      lat: 29.179909023343924,
      lon: -81.05804206484643,
      elevationFt: 34,
      conditions: [Array]
    },
    windsAloft: {
      lat: 29.179909023343924,
      lon: -81.05804206484643,
      dateIssued: '2023-09-08T12:00:00+0000',
      windsAloft: [Array],
      source: 'Model'
    },
    mos: {
      station: 'KDAB',
      issued: '2023-09-08T20:37:00+0000',
      period: [Object],
      latitude: 29.179909023343924,
      longitude: -81.05804206484643,
      forecast: [Object]
    }
  }
}